{
  "norad_id": 48963,
  "name": "NAPA-2",
  "history": [
    {
      "epoch": "2026-03-28T10:21:54.037152",
      "apogee_km": 349.0759918226777,
      "perigee_km": 343.8439863812764,
      "latitude_deg": -23.544994158722925,
      "longitude_deg": -162.23995871981606,
      "semi_major_axis_km": 6724.596989101977,
      "eccentricity": 0.00038902,
      "inclination_deg": 97.6839,
      "raan_deg": 276.8396,
      "arg_perigee_deg": 245.2804,
      "mean_anomaly_deg": 114.8054,
      "mean_motion_rev_day": 15.74357543
    }
  ]
}